{"type": "FeatureCollection", "features": [{"type": "Feature", "properties": {"name": "West Bengal"}, "geometry": {"type": "MultiPolygon", "coordinates": [[[[88.04492580515574, 21.508397493104045], [88.04954184890624, 21.516342626002654], [88.05086071854925, 21.50905958751226], [88.04492580515574, 21.508397493104045]]], [[[88.07328150248028, 21.531239750187545], [88.07493008953404, 21.51700472041087], [88.06108195828251, 21.508066445899935], [88.07328150248028, 21.531239750187545]]], [[[87.9918413020249, 21.513032153961564], [88.01657010783119, 21.595462907784636], [88.03866117435147, 21.577917405966875], [88.0478932618525, 21.58122787800796], [88.0544876100675, 21.550440488025853], [88.04426637033423, 21.56864808425183], [88.03701258729772, 21.54580582716833], [88.02547247792145, 21.562027140169658], [88.01591067300969, 21.53190184459576], [87.9918413020249, 21.513032153961564]]], [[[88.1893420310645, 21.578248453170982], [88.197914683744, 21.542164307923134], [88.17285616052696, 21.55341991286283], [88.16362407302594, 21.59744919100929], [88.1893420310645, 21.578248453170982]]], [[[88.07756782882004, 21.57394483951757], [88.07591924176629, 21.588179869294244], [88.08350274221355, 21.572289603497026], [88.07756782882004, 21.57394483951757]]], [[[88.08218387257055, 21.587186727681917], [88.08350274221355, 21.59248348294766], [88.09042680783932, 21.584869397253158], [88.08218387257055, 21.587186727681917]]], [[[88.07427065471254, 21.613339456806507], [88.07756782882004, 21.621615636909226], [88.0792164158738, 21.607711654336658], [88.07427065471254, 21.613339456806507]]], [[[87.9443619948768, 21.598442332621616], [87.96777193104009, 21.63320228905303], [87.97403656184436, 21.68219727526112], [87.98590638863138, 21.686831936118644], [87.99019271497114, 21.62293982572566], [87.95029690827032, 21.59215243574355], [87.9443619948768, 21.598442332621616]]], [[[87.90215816630074, 21.686831936118644], [87.90809307969424, 21.704046390732298], [87.90710392746199, 21.686831936118644], [87.90215816630074, 21.686831936118644]]], [[[87.97898232300562, 21.702391154711755], [87.98689554086363, 21.699080682670665], [87.98063091005938, 21.691797644180273], [87.97898232300562, 21.702391154711755]]], [[[87.92326008058876, 21.709674193202144], [87.94073510335855, 21.723578175774712], [87.92820584175003, 21.689149266547403], [87.92326008058876, 21.709674193202144]]], [[[87.94732945157357, 21.704377437936405], [87.95227521273482, 21.711660476426797], [87.95623182166382, 21.705039532344625], [87.94732945157357, 21.704377437936405]]], [[[87.97832288818411, 21.72424027018293], [87.98656582345288, 21.730199119856884], [87.98491723639913, 21.72192293975417], [87.97832288818411, 21.72424027018293]]], [[[87.94765916898432, 21.729868072652778], [87.95985871318209, 21.73979948877604], [87.95425351719932, 21.73119226146921], [87.94765916898432, 21.729868072652778]]], [[[88.07295178506953, 21.748075668878755], [88.07394093730178, 21.777207822840325], [88.09141596007157, 21.785484002943043], [88.12109052703912, 21.774228398003345], [88.13032261454013, 21.756682896185584], [88.12076080962836, 21.732516450285647], [88.1346089408799, 21.706363721161058], [88.12801459266488, 21.681204133648794], [88.14219244132715, 21.69874963546656], [88.12801459266488, 21.730530167060994], [88.13625752793365, 21.75999336822667], [88.11152872212736, 21.790449711004673], [88.08416217703505, 21.792435994229326], [88.10394522168009, 21.842093074845632], [88.13296035382615, 21.87354255923596], [88.16593209490121, 21.822892337007328], [88.17087785606246, 21.737813205551387], [88.14911650695292, 21.680542039240578], [88.12768487525413, 21.680873086444688], [88.12570657078963, 21.673590047954296], [88.13691696275515, 21.670279575913206], [88.14680848507767, 21.64379579958451], [88.12076080962836, 21.623932967337986], [88.04756354444174, 21.641809516359857], [88.03338569577946, 21.662996537422817], [88.03272626095796, 21.68749403052686], [88.07295178506953, 21.748075668878755]]], [[[87.95722097389609, 21.756682896185584], [87.93183273326828, 21.744434149633562], [87.95689125648533, 21.771580020370475], [87.95722097389609, 21.756682896185584]]], [[[87.90182844888997, 21.77224211477869], [87.88138596942345, 21.745427291245885], [87.8803968171912, 21.75767603779791], [87.90182844888997, 21.77224211477869]]], [[[88.17582361722371, 21.782504578106064], [88.17516418240221, 21.79872589110739], [88.18274768284948, 21.78051829488141], [88.17582361722371, 21.782504578106064]]], [[[88.18010994356348, 21.839444697212762], [88.17417503016996, 21.85566601021409], [88.190001465886, 21.833816894742917], [88.18010994356348, 21.839444697212762]]], [[[88.16362407302594, 21.862618001500373], [88.16263492079369, 21.865928473541462], [88.16922926900871, 21.862286954296266], [88.16362407302594, 21.862618001500373]]], [[[88.09174567748232, 21.893736438686595], [88.10361550426934, 21.88976387223729], [88.09438341676832, 21.866921615153785], [88.09174567748232, 21.893736438686595]]], [[[88.09932917792958, 21.899033193952334], [88.09504285158982, 21.905654138034507], [88.11053956989511, 21.901019477176984], [88.09932917792958, 21.899033193952334]]], [[[88.14153300650565, 21.920551262219398], [88.12999289712938, 21.900026335564657], [88.11185843953811, 21.91724079017831], [88.11482589623486, 21.93114477275088], [88.14153300650565, 21.920551262219398]]], [[[88.09669143864357, 22.0003336384096], [88.13427922346915, 22.016223904206818], [88.12801459266488, 21.993381647123318], [88.10097776498334, 21.970539390039818], [88.0884485033748, 21.973849862080904], [88.09669143864357, 22.0003336384096]]], [[[88.07295178506953, 22.184726931098158], [88.13625752793365, 22.185389025506375], [88.16988870383021, 22.15029802187085], [88.16626181231196, 22.139042416931154], [88.18670429177848, 22.10461350770385], [88.16065661632919, 22.072170881701194], [88.09768059087583, 22.028472650758843], [88.06437913239002, 22.01821018743147], [88.03899089176223, 22.0344315004328], [88.01953756452794, 22.071839834497084], [87.99283045425715, 22.07581240094639], [88.01360265113443, 22.061246323965605], [88.048552696674, 21.997354213572624], [88.01986728193869, 21.95696645467136], [87.98656582345288, 21.87056313439898], [87.95524266943157, 21.830506422701827], [87.89721240513947, 21.793429135841652], [87.87050529486868, 21.810974637659413], [87.87907794754818, 21.772573161982802], [87.78939481182402, 21.699742777078885], [87.74653154842645, 21.694114974609036], [87.7415857872652, 21.681204133648794], [87.67366400065058, 21.650416743666685], [87.65124321671954, 21.647437318829706], [87.64926491225503, 21.661010254198164], [87.63838423770027, 21.662665490218707], [87.628162997967, 21.644457893992726], [87.56353838545988, 21.627905533787292], [87.56156008099538, 21.63618171389001], [87.54144731893959, 21.62095354250101], [87.48605479393349, 21.60969793756131], [87.47682270643247, 21.64644417721738], [87.46165570553794, 21.651078838074902], [87.4718769452712, 21.683852511281664], [87.4692392059852, 21.732185403081537], [87.44418068276816, 21.73417168630619], [87.45407220509068, 21.73979948877604], [87.44516983500041, 21.743109960817126], [87.43824576937465, 21.790780758208783], [87.44022407383915, 21.768600595533496], [87.39604194079857, 21.765952217900626], [87.38582070106531, 21.775883634023888], [87.37362115686753, 21.764296981880083], [87.35548669927626, 21.79111180541289], [87.33768195909572, 21.783828766922497], [87.33570365463122, 21.793429135841652], [87.31064513141418, 21.792435994229326], [87.29811586980566, 21.810643590455303], [87.28261915150037, 21.802698457556694], [87.26382525908758, 21.818919770558022], [87.27074932471335, 21.827858045068957], [87.24865825819306, 21.853679726989437], [87.25162571488981, 21.875197795256504], [87.23876673587054, 21.901681571585204], [87.25525260640808, 21.92253754544405], [87.23612899658454, 21.9433935193029], [87.24338277962106, 21.963918445957642], [87.23909645328129, 21.955973313059033], [87.21140019077825, 21.9662357763864], [87.19689262470521, 21.95928378510012], [87.17018551443442, 21.979477664550753], [87.1616128617549, 21.935448386404293], [87.13721377335936, 21.923530687056378], [87.10852835862406, 21.924854875872814], [87.09632881442629, 21.913930318137226], [87.09863683630154, 21.865928473541462], [87.03763911531269, 21.868245803970222], [87.00202963495163, 21.9129371765249], [87.03071504968692, 21.98543651422471], [87.02807731040092, 22.037741972473885], [86.99246783003986, 22.05495642708754], [86.96510128494755, 22.085743817069652], [86.83783036439783, 22.097661516417563], [86.82826855948606, 22.117855395868197], [86.80881523225177, 22.11917958468463], [86.81409071082379, 22.125800528766806], [86.801891166626, 22.13043518962433], [86.80452890591202, 22.15029802187085], [86.7946373835895, 22.157250013157135], [86.72176983581362, 22.146656502625657], [86.72704531438563, 22.216838509896704], [86.77617320858747, 22.21816269871314], [86.78144868715948, 22.237032389347334], [86.79496710100025, 22.2280941148364], [86.78474586126698, 22.23107353967338], [86.77815151305197, 22.21816269871314], [86.80222088403676, 22.21783165150903], [86.81244212377003, 22.24133600300075], [86.79430766617875, 22.2433222862254], [86.79232936171425, 22.266164543308903], [86.8012317318045, 22.265502448900687], [86.80288031885826, 22.244315427837726], [86.81343127600228, 22.267488732125337], [86.81672845010979, 22.253915796756882], [86.8239822331463, 22.26682663771712], [86.88662854118891, 22.257557316002075], [86.88827712824266, 22.297282980495122], [86.83321432064731, 22.32442885123204], [86.84541386484509, 22.399907613768825], [86.81310155859153, 22.419108351607132], [86.7646330992112, 22.42672243730163], [86.7633142295682, 22.44724736395637], [86.75111468537042, 22.4558545912632], [86.75078496795967, 22.482338367591897], [86.79298879653575, 22.477372659530268], [86.80090201439376, 22.487966170061746], [86.78870247019599, 22.54887885561775], [86.7685897081402, 22.55417561088349], [86.77155716483696, 22.56476912141497], [86.75737931617468, 22.578673103987533], [86.6584640929495, 22.575693679150557], [86.65615607107425, 22.591583944947775], [86.63307585232171, 22.61111572999019], [86.64065935276898, 22.659448621790062], [86.55921915231357, 22.71241617444746], [86.52426910677401, 22.721354448958394], [86.5130587148085, 22.718043976917304], [86.51042097552249, 22.704802088752956], [86.45997421167765, 22.7633974438802], [86.41941897015533, 22.790874361821224], [86.43854257997886, 22.83126212072249], [86.4349156884606, 22.860725321888165], [86.45107184158738, 22.862380557908708], [86.45337986346264, 22.886215956604534], [86.46722799471416, 22.90078203358532], [86.4530501460519, 22.90343041121819], [86.43590484069286, 22.925941621097582], [86.47646008221518, 22.951763303018062], [86.4889893438237, 22.937528273241387], [86.50283747507522, 22.951432255813952], [86.52558797641701, 22.94745968936465], [86.53152288981053, 22.9646741439783], [86.54471158624055, 22.965998332794737], [86.5470196081158, 22.989502684286457], [86.51899362820201, 22.97063299365226], [86.50745351882574, 22.97295032408102], [86.51338843221924, 22.97758498493854], [86.50151860543222, 22.994799439552196], [86.44678551524763, 22.98817849547002], [86.41908925274458, 23.00042724202204], [86.39403072952753, 22.980895456979628], [86.3768854241685, 22.998440958797392], [86.32610894291291, 22.994799439552196], [86.30467731121412, 23.01664855502337], [86.23708524201025, 22.995130486756302], [86.2067512402212, 23.00042724202204], [86.2074106750427, 23.008041327716544], [86.18564932593316, 23.005392950083674], [86.14146719289258, 23.057367361128744], [86.1460832366431, 23.075243910150615], [86.04914631788242, 23.106031300132724], [86.05475151386517, 23.123907849154595], [86.04354112189965, 23.145094870217555], [85.95682544287224, 23.160985136014773], [85.91659991876068, 23.146088011829878], [85.88197959063187, 23.168268174505165], [85.88329846027487, 23.196076139650295], [85.86648287232659, 23.22057363275434], [85.83647858794829, 23.22057363275434], [85.83812717500204, 23.247057409083038], [85.819663, 23.268575477350105], [85.83812717500204, 23.305983811414393], [85.86846117679109, 23.330481304518436], [85.86582343750509, 23.341405862254025], [85.88362817768562, 23.35034413676496], [85.8697800464341, 23.38907665964568], [85.90275178750916, 23.398677028564833], [85.88626591697162, 23.4049669254429], [85.88461732991787, 23.429795465751052], [85.86351541562983, 23.431781748975705], [85.86318569821908, 23.462569138957814], [85.88659563438237, 23.4847493016331], [85.95023109465724, 23.470845319060533], [86.05409207904367, 23.48706663206186], [86.05870812279419, 23.494349670552253], [86.03892507814915, 23.49799118979745], [86.02804440359438, 23.542682562352127], [86.01683401162886, 23.547648270413756], [86.0418925348459, 23.586049746090367], [86.07783173261771, 23.579097754804085], [86.07255625404571, 23.568835291476717], [86.09200958128, 23.562876441802757], [86.1259704745873, 23.56982843308904], [86.13124595315931, 23.558903875353455], [86.15861249825161, 23.55956596976167], [86.1480615411076, 23.519840305268623], [86.16059080271611, 23.508253653124818], [86.14839125851834, 23.465217516590684], [86.17707667325365, 23.469852177448207], [86.22884230674148, 23.44336840111951], [86.2327989156705, 23.462238091753708], [86.24598761210052, 23.45958971412084], [86.23049089379523, 23.43111965456749], [86.24763619915427, 23.41158786952507], [86.25950602594129, 23.413243105545618], [86.25225224290477, 23.427147088118183], [86.2641220696918, 23.43078860736338], [86.28852115808735, 23.429464418546942], [86.2901697451411, 23.418208813607247], [86.31028250719689, 23.41191891672918], [86.31753629023339, 23.426816040914073], [86.30566646344637, 23.43509222101679], [86.33369244336018, 23.447340967568813], [86.3488594442547, 23.44038897628253], [86.36369672773849, 23.47150741346875], [86.37919344604376, 23.473824743897513], [86.37853401122226, 23.485411396041318], [86.36171842327397, 23.485411396041318], [86.37523683711476, 23.509246794737145], [86.36501559738149, 23.53109591020832], [86.38842553354478, 23.560228064169888], [86.38776609872328, 23.574132046742456], [86.41381377417257, 23.576118329967105], [86.42073783979833, 23.589691265335563], [86.44711523265838, 23.597967445438282], [86.44645579783688, 23.617499230480696], [86.46195251614215, 23.629747977032718], [86.49063793087745, 23.637693109931327], [86.52888515052453, 23.629747977032718], [86.57438615320811, 23.64762452605459], [86.59812580678215, 23.67377725517918], [86.71286746572335, 23.69860579548733], [86.73957457599415, 23.69463322903803], [86.74781751126291, 23.679074010444918], [86.80551805814427, 23.696288465058572], [86.84673273448809, 23.68403971850655], [86.79892370992926, 23.69992998430377], [86.81178268894853, 23.745283451266662], [86.82859827689681, 23.759849528247447], [86.82563082020006, 23.777395030065207], [86.80419918850127, 23.801561475965144], [86.81013410189477, 23.821755355415775], [86.80024257957226, 23.8340041019678], [86.80980438448402, 23.835328290784233], [86.81409071082379, 23.81844488337469], [86.82661997243231, 23.814141269721276], [86.87475871440189, 23.847577037336258], [86.88992571529641, 23.819769072191125], [86.89454175904693, 23.834997243580126], [86.88135306261691, 23.863136255929366], [86.91630310815647, 23.88266804097178], [86.94696682735628, 23.84592180131571], [86.9627932630723, 23.849563320560907], [86.97301450280557, 23.86909510560332], [87.03796883272344, 23.83930085723354], [87.08742644433602, 23.81016870327197], [87.11149581532082, 23.775077699636448], [87.08907503138978, 23.814141269721276], [87.11611185907132, 23.807189278434993], [87.11215525014232, 23.798913098332275], [87.14018123005611, 23.80487194800623], [87.14941331755713, 23.796595767903515], [87.16721805773767, 23.825065827456864], [87.12995999032285, 23.853535887010214], [87.12930055550135, 23.86909510560332], [87.1649100358624, 23.86512253915402], [87.18106618898919, 23.852873792601997], [87.19656290729446, 23.857839500663626], [87.18930912425796, 23.84228028207052], [87.20579499479548, 23.856515311847193], [87.23382097470929, 23.856515311847193], [87.21733510417175, 23.830031535518494], [87.24074504033504, 23.82572792186508], [87.25591204122958, 23.84393551809106], [87.24107475774579, 23.870419294419758], [87.24635023631781, 23.90882077009637], [87.25789034569408, 23.908489722892263], [87.25261486712206, 23.899882495585434], [87.26943045507035, 23.874391860869064], [87.29514841310889, 23.90120668440187], [87.28459745596487, 23.92173161105661], [87.29284039123364, 23.959139945120896], [87.26250638944458, 23.967416125223615], [87.26283610685533, 24.003500270471463], [87.24766910596081, 23.99886560961394], [87.23382097470929, 24.024356244330313], [87.24536108408556, 24.045212218189164], [87.28822434748314, 24.028659857983726], [87.33702252427422, 24.033956613249465], [87.33603337204197, 24.021045772289227], [87.31921778409368, 24.007803884124876], [87.3291093064162, 23.99886560961394], [87.35153009034724, 23.998534562409834], [87.36076217784826, 24.01276959218651], [87.43956463901765, 23.98165115500029], [87.46000711848419, 23.98429953263316], [87.46066655330569, 23.99621723198107], [87.4379160519639, 24.013100639390615], [87.47649298902172, 24.01210749777829], [87.51210246938278, 24.03594289647412], [87.51012416491828, 24.047529548617923], [87.49330857697, 24.054150492700096], [87.4926491421485, 24.0769927497836], [87.51111331715053, 24.082951599457555], [87.48968168545174, 24.090234637947948], [87.50023264259576, 24.101821290091753], [87.49759490330976, 24.11771155588897], [87.53188551402782, 24.107118045357492], [87.54309590599334, 24.085931024294535], [87.55892234170936, 24.081296363437012], [87.58101340822965, 24.087586260315078], [87.57441906001465, 24.111752706215015], [87.58529973456942, 24.124001452767036], [87.61035825778646, 24.132277632869755], [87.57573792965765, 24.161078739627214], [87.630800737253, 24.164058164464194], [87.64201112921852, 24.152802559524496], [87.66443191314956, 24.15743722038202], [87.67531258770433, 24.151478370708062], [87.67267484841832, 24.141878001788907], [87.69509563234936, 24.1491610402793], [87.69839280645687, 24.187231468751804], [87.67696117475808, 24.194514507242197], [87.67432343547208, 24.207425348202435], [87.63838423770027, 24.214708386692827], [87.64629745555827, 24.23026760528594], [87.63871395511102, 24.254103003981765], [87.65816728234529, 24.235895407755784], [87.6621238912743, 24.245495776674936], [87.70597630690413, 24.26039290085983], [87.71323008994064, 24.29382866847481], [87.73004567788892, 24.28853191320907], [87.76136883191023, 24.308394745455594], [87.77060091941125, 24.32229872802816], [87.76466600601773, 24.339844229845923], [87.8009349212003, 24.382549319175947], [87.79434057298529, 24.3997637737896], [87.81214531316581, 24.413998803566276], [87.80621039977231, 24.420288700444342], [87.79994576896804, 24.409033095504647], [87.78939481182402, 24.420288700444342], [87.80357266048631, 24.45438656246754], [87.82368542254208, 24.458359128916843], [87.81082644352281, 24.47722881955104], [87.8283014662926, 24.49775374620578], [87.81148587834431, 24.492125943735935], [87.80983729129056, 24.51430610641122], [87.8022537908433, 24.494443274164695], [87.79434057298529, 24.501395265450977], [87.80324294307556, 24.50569887910439], [87.79928633414654, 24.543769307576895], [87.80884813905831, 24.54741082682209], [87.79137311628853, 24.572239367130244], [87.77060091941125, 24.570915178313808], [87.7715900716435, 24.58382601927405], [87.79302170334229, 24.58349497206994], [87.8263231618281, 24.569590989497375], [87.8276420314711, 24.55767329014946], [87.85204111986664, 24.554031770904263], [87.89061805692445, 24.565287375843962], [87.88995862210295, 24.553038629291937], [87.89259636138897, 24.58150868884529], [87.90875251451574, 24.585812302498702], [87.91139025380174, 24.610309795602745], [87.87512133861918, 24.613620267643835], [87.90578505781899, 24.614944456460268], [87.9143577104985, 24.63712461913555], [87.91699544978451, 24.66592572589301], [87.88863975245995, 24.67916761405736], [87.90776336228349, 24.721210608979167], [87.8902883395137, 24.724852128224363], [87.88270483906645, 24.7414044884298], [87.86555953370741, 24.732466213918865], [87.81808022655933, 24.75497742379826], [87.8348958145076, 24.789406333025564], [87.83654440156137, 24.765901981533844], [87.85434914174189, 24.76159836788043], [87.86918642522568, 24.77484025604478], [87.86852699040416, 24.789075285821454], [87.8817156868342, 24.799006701944716], [87.86885670781493, 24.82416628945698], [87.90017986183622, 24.823173147844653], [87.89061805692445, 24.855284726643198], [87.89754212255022, 24.859257293092504], [87.96282616987884, 24.752660093369496], [87.89721240513947, 24.860581481908937], [87.96051814800359, 24.920832073056726], [87.95392379978857, 24.978103239367535], [87.79565944262829, 25.087348816723413], [87.80060520378954, 25.117805159501415], [87.77917357209076, 25.143626841421895], [87.77851413726926, 25.25055508834901], [87.71125178547614, 25.257838126839403], [87.76268770155323, 25.2654522125339], [87.81840994397008, 25.241947861042185], [87.84676564129462, 25.264459070921575], [87.84709535870539, 25.304515782618733], [87.78411933325202, 25.340268880662475], [87.78939481182402, 25.37701512031854], [87.76499572342848, 25.383967111604825], [87.76697402789299, 25.41607869040337], [87.77851413726926, 25.41045088793352], [87.773568376108, 25.42898953136361], [87.78708678994877, 25.449183410814243], [87.82137740066683, 25.435941522649895], [87.83918214084737, 25.46805310144844], [87.86424066406441, 25.464411582203244], [87.86621896852891, 25.496854208205896], [87.88534257835245, 25.509434001962028], [87.88402370870945, 25.520689606901726], [87.90281760112224, 25.50479934110451], [87.91567658014151, 25.533931495066074], [87.95952899577134, 25.538566155923597], [87.98491723639913, 25.525655314963355], [88.00437056363342, 25.49619211379768], [88.00206254175816, 25.51439971002366], [88.01228378149143, 25.51439971002366], [88.03074795649346, 25.49056431132783], [88.06569800203302, 25.489240122511397], [88.0792164158738, 25.458452732529288], [88.06932489355128, 25.525986362167465], [88.05976308863951, 25.526317409371572], [88.06503856721152, 25.53194521184142], [88.05217958819225, 25.549159666455076], [88.03140739131496, 25.55412537451671], [88.04030976140523, 25.57365715955912], [88.02085643417094, 25.570677734722143], [88.03536400024397, 25.58094019804951], [88.0244833256892, 25.582595434070058], [88.02151586899244, 25.596168369438512], [88.04360693551273, 25.610403399215187], [88.03437484801172, 25.63059727866582], [88.055147044889, 25.644832308442496], [88.03602343506547, 25.648804874891802], [88.0505310011385, 25.65343953574932], [88.055147044889, 25.691509964221826], [88.04888241408474, 25.70276556916152], [88.02118615158169, 25.696475672283455], [88.02151586899244, 25.71037965485602], [87.9925007368464, 25.72626992065324], [87.96777193104009, 25.72593887344913], [87.94205397300155, 25.774271765249004], [87.90446618817599, 25.77261652922846], [87.91040110156949, 25.80373496641468], [87.90017986183622, 25.807045438455766], [87.91765488460601, 25.816314760170812], [87.90017986183622, 25.823266751457094], [87.90578505781899, 25.830549789947487], [87.88929918728145, 25.82988769553927], [87.90347703594374, 25.833198167580356], [87.89853127478247, 25.83816387564199], [87.91567658014151, 25.853392047030987], [87.89226664397822, 25.86564079358301], [87.8830345564772, 25.859350896704946], [87.87479162120843, 25.86828917121588], [87.8296203359356, 25.871599643256967], [87.82533400959585, 25.910994260545905], [87.80983729129056, 25.911987402158232], [87.81082644352281, 25.92787766795545], [87.83951185825812, 25.93383651762941], [87.83456609709685, 25.94641631138554], [87.84808451093764, 25.96958961567315], [87.85533829397414, 26.035136962086675], [87.8863317305847, 26.043413142189394], [87.89358551362122, 26.063938068844134], [87.92655725469628, 26.083800901090658], [87.9351299073758, 26.064269116048244], [87.94897803862732, 26.05996550239483], [87.95359408237782, 26.07519367378383], [87.98227949711313, 26.07287634335507], [87.98096062747013, 26.084794042702985], [87.96414503952184, 26.095056506030353], [87.98887384532813, 26.105318969357725], [87.98557667122063, 26.117567715909747], [87.96876108327235, 26.11922295193029], [87.98194977970238, 26.12749913203301], [87.97502571407661, 26.14305835062612], [87.9925007368464, 26.15100348352473], [87.9984356502399, 26.13974787858503], [88.01030547702692, 26.14537568105488], [88.00931632479467, 26.16027280523977], [88.03470456542247, 26.17914249587397], [88.07328150248028, 26.175169929424662], [88.11647448328861, 26.223833868428645], [88.1418627239164, 26.226482246061515], [88.14581933284542, 26.250317644757345], [88.17648305204523, 26.253959164002538], [88.18571513954623, 26.270842571412082], [88.22758925071156, 26.28474655398465], [88.23121614222981, 26.301298914190085], [88.25033975205335, 26.311561377517457], [88.2533072087501, 26.33440363460096], [88.28528979759291, 26.329768973743437], [88.28561951500366, 26.3473144755612], [88.30045679848745, 26.350624947602284], [88.28759781946817, 26.357907986092677], [88.28331149312841, 26.378101865543307], [88.2447345560706, 26.375784535114548], [88.23418359892658, 26.391674800911765], [88.26122042660812, 26.41981381326101], [88.27341997080589, 26.41882067164868], [88.25099918687485, 26.433055701425356], [88.24077794714158, 26.45788424173351], [88.21505998910304, 26.477084979571817], [88.22758925071156, 26.49198210375671], [88.19824440115475, 26.484699065266316], [88.18208824802798, 26.505555039125166], [88.23550246856958, 26.544949656414104], [88.23088642481906, 26.572426574355127], [88.21571942392454, 26.573419715967454], [88.21835716321054, 26.55355688372093], [88.1893420310645, 26.55951573339489], [88.17912079133123, 26.544949656414104], [88.16856983418721, 26.55355688372093], [88.16659152972271, 26.53568033469906], [88.14581933284542, 26.5221073993306], [88.1052640913231, 26.55123955329217], [88.11284759177036, 26.572426574355127], [88.13032261454013, 26.573419715967454], [88.1418627239164, 26.624732032604307], [88.16032689891844, 26.636649731952218], [88.18703400918923, 26.771385944024466], [88.16626181231196, 26.84885098978591], [88.17153729088396, 26.86672753880778], [88.1385655498089, 26.89751492878989], [88.1438410283809, 26.92135032748572], [88.12109052703912, 26.950482481447285], [88.13296035382615, 26.982263013041724], [88.09108624266082, 27.00609841173755], [88.0798758506953, 27.03423742408679], [88.03998004399448, 27.035561612903226], [88.01755926006344, 27.074625182988054], [88.02184558640319, 27.08687392954008], [87.9918413020249, 27.108391997807146], [87.99348988907865, 27.12991006607421], [88.00898660738392, 27.14116567101391], [88.01953756452794, 27.170297824975474], [88.01492152077743, 27.211678725489065], [88.03998004399448, 27.220617], [88.07888669846305, 27.201416262161693], [88.07427065471254, 27.185525996364476], [88.09603200382207, 27.13355158531941], [88.15373255070342, 27.10971618662358], [88.18175853061723, 27.132558443707083], [88.21571942392454, 27.131565302094756], [88.23220529446208, 27.118654461134515], [88.3021053855412, 27.128916924461883], [88.31661295161422, 27.125606452420797], [88.32452616947224, 27.105412572970167], [88.34200119224202, 27.10971618662358], [88.35650875831504, 27.095481156846905], [88.43201404537693, 27.080252985457903], [88.42574941457266, 27.071314710946968], [88.45872115564772, 27.08952230717295], [88.47520702618526, 27.120971791563278], [88.4963089404733, 27.12229598037971], [88.52994011636986, 27.14811766230019], [88.53191842083436, 27.176256674649434], [88.59720246816298, 27.188174373997345], [88.65292471057982, 27.160035361648106], [88.68820447353013, 27.175263533037107], [88.70666864853217, 27.16632525852617], [88.7244733887127, 27.13553786854406], [88.79800037131008, 27.139179387789255], [88.84613911327966, 27.108391997807146], [88.8659221579247, 27.109054092215363], [88.87680283247947, 27.03721684892377], [88.8679004623892, 26.96504855842807], [88.87317594096122, 26.943861537365112], [88.92032553069855, 26.994180712389635], [88.94835151061235, 26.967034841652723], [88.94109772757584, 26.93095069640487], [88.9753883382939, 26.912743100178893], [89.01627329722697, 26.937571640487047], [89.02187849320973, 26.922674516302152], [89.04199125526551, 26.916384619424086], [89.04396955973002, 26.901818542443305], [89.08947056241361, 26.889238748687173], [89.08518423607384, 26.868713822032433], [89.09804321509311, 26.858120311500954], [89.09045971464586, 26.84057480968319], [89.12903665170367, 26.80647694765999], [89.1689324584045, 26.81475312776271], [89.25597785484266, 26.807801136476428], [89.3156567061885, 26.84355423452017], [89.32488879368952, 26.837264337642104], [89.37467612271287, 26.854147745051648], [89.38225962316012, 26.836271196029777], [89.42874977807595, 26.83527805441745], [89.45446773611451, 26.797869720353166], [89.54777776335692, 26.813097891742167], [89.55799900309019, 26.797538673149056], [89.64009863836709, 26.777344793698425], [89.63647174684883, 26.75052997016562], [89.60877548434578, 26.72735666587801], [89.6199858763113, 26.715770013734204], [89.62789909416932, 26.72239095781638], [89.64966044327886, 26.715438966530094], [89.66581659640563, 26.73695703479716], [89.71494449060748, 26.720073627387617], [89.74362990534277, 26.73265342114375], [89.76374266739856, 26.69888660632466], [89.79935214775962, 26.7081559280397], [89.85111778124747, 26.69855555912055], [89.86331732544524, 26.681341104506895], [89.86628478214199, 26.645588006463154], [89.84979891160447, 26.62307679658376], [89.8695819562495, 26.614138522072828], [89.86562534732049, 26.59195835939754], [89.874198, 26.584013226498932], [89.85771212946247, 26.576068093600323], [89.86232817321299, 26.55388793092504], [89.85111778124747, 26.520783210514168], [89.85045834642597, 26.489002678919732], [89.8695819562495, 26.46384309140747], [89.84782060713997, 26.422793238097988], [89.85639325981947, 26.412861821974726], [89.83463191070993, 26.41451705799527], [89.82803756249493, 26.394654225748745], [89.83792908481745, 26.39134375370766], [89.8461720200862, 26.404916689076117], [89.85639325981947, 26.384391762421373], [89.82474038838743, 26.381743384788507], [89.82045406204766, 26.352611230826938], [89.81122197454664, 26.360556363725546], [89.82045406204766, 26.373136157481678], [89.7808879727576, 26.352942278031048], [89.78253655981135, 26.332748398580414], [89.76308323257706, 26.31652708557909], [89.75055397096854, 26.32149279364072], [89.75714831918354, 26.288719120433953], [89.7268143173945, 26.294346922903802], [89.71989025176873, 26.306926716659934], [89.71758222989348, 26.29567111172024], [89.73835442677077, 26.26984942979976], [89.71956053435798, 26.257269636043628], [89.70703127274946, 26.270511524207976], [89.70241522899894, 26.259255919268277], [89.71692279507198, 26.256938588839517], [89.7320897959665, 26.236744709388887], [89.70043692453444, 26.21787501875469], [89.734068100431, 26.20992988585608], [89.71164731649996, 26.20231580016158], [89.72054968659023, 26.195363808875296], [89.71329590355371, 26.187087628772577], [89.69845862006994, 26.190729148017773], [89.70966901203546, 26.171859457383576], [89.736705839717, 26.172190504587686], [89.71362562096446, 26.168217938138383], [89.7014260767667, 26.151334530728835], [89.6806538798894, 26.16556956050551], [89.7020855115882, 26.173514693404123], [89.68691851069367, 26.18112877909862], [89.68625907587217, 26.19768113930406], [89.6727406620314, 26.200660564141035], [89.69120483703342, 26.211254074672514], [89.6793350102464, 26.21489559391771], [89.67900529283565, 26.223833868428645], [89.68922653256892, 26.22085444359167], [89.68559964105067, 26.230785859714928], [89.6786755754249, 26.23839994540943], [89.67175150979915, 26.219530254775233], [89.66087083524438, 26.218868160367016], [89.63416372497358, 26.229461670898495], [89.63218542050907, 26.209267791447864], [89.64999016068961, 26.190067053609557], [89.6420769428316, 26.185101345547928], [89.63020711604457, 26.196025903283513], [89.62756937675857, 26.18377715673149], [89.65856281336912, 26.17616307103699], [89.6460335517606, 26.164245371689077], [89.63251513791982, 26.18079773189451], [89.6246019200618, 26.17119736297536], [89.62361276782956, 26.17914249587397], [89.60745661470278, 26.17914249587397], [89.6193264414898, 26.167555843730163], [89.60877548434578, 26.15332081395349], [89.59097074416525, 26.1576244276069], [89.59624622273726, 26.1347821705234], [89.60415944059527, 26.11690562150153], [89.6252613548833, 26.128161226441225], [89.63020711604457, 26.117567715909747], [89.61569954997154, 26.10631211097005], [89.59756509238026, 26.112270960644008], [89.59360848345125, 26.10167745011253], [89.60844576693503, 26.08810451474407], [89.61372124550704, 26.102670591724856], [89.62954768122307, 26.10664315817416], [89.63943920354559, 26.090421845172834], [89.63383400756283, 26.080159381845462], [89.64999016068961, 26.063607021640024], [89.6206453111328, 26.053344558312656], [89.60514859282753, 26.063938068844134], [89.61306181068554, 26.053013511108546], [89.57844148255673, 26.02619868757574], [89.586024983004, 25.975217418142996], [89.56986882987721, 25.966941238040278], [89.56624193835896, 25.97952103179641], [89.55536126380419, 25.964623907611518], [89.53887539326665, 25.972900087714237], [89.53623765398065, 25.989121400715565], [89.54909663299992, 25.99739758081828], [89.54085369773117, 26.005673760921], [89.46271067138328, 25.9980596752265], [89.4271011910222, 26.013618893819608], [89.43402525664797, 26.030833348433262], [89.4238040169147, 26.04672361423048], [89.38951340619664, 26.021895073922327], [89.39347001512564, 26.007991091349762], [89.34928788208506, 26.01030842177852], [89.32389964145727, 26.038116386923654], [89.30048970529398, 26.050696180679786], [89.27938779100595, 26.049040944659243], [89.28004722582745, 26.066586446477004], [89.2543292677889, 26.06460016325235], [89.26553965975442, 26.092739175601594], [89.25202124591364, 26.091746033989267], [89.2296004619826, 26.123857612787813], [89.19234239456779, 26.123857612787813], [89.15508432715298, 26.138754736972704], [89.14848997893796, 26.158286522015118], [89.15739234902823, 26.16325223007675], [89.13464184768644, 26.180466684690405], [89.14947913117021, 26.209267791447864], [89.14090647849069, 26.236082614980667], [89.11980456420265, 26.252634975186105], [89.12508004277467, 26.263559532921693], [89.10002151955763, 26.27978084592302], [89.10463756330813, 26.31586499117087], [89.1207937164349, 26.287063884413413], [89.13233382581117, 26.300305772577758], [89.1168371075059, 26.314540802354436], [89.13068523875742, 26.309575094292803], [89.13629043474019, 26.320168604824282], [89.11255078116615, 26.31851336880374], [89.09672434545011, 26.329437926539327], [89.08353564902009, 26.322485935253045], [89.10134038920063, 26.33672096502972], [89.09837293250386, 26.359232174909113], [89.07990875750184, 26.36287369415431], [89.09639462803936, 26.39068165929944], [89.0627634521428, 26.40094412262681], [89.03407803740751, 26.39531632015696], [89.0060520574937, 26.42146904928155], [88.99385251329593, 26.423124285302094], [88.99418223070668, 26.413192869178832], [88.98066381686591, 26.425772662934964], [88.98330155615191, 26.446959683997925], [88.96483738114988, 26.45821528893762], [88.9460434887371, 26.448283872814358], [88.94505433650484, 26.426103710139074], [88.92626044409207, 26.43239360701714], [88.93285479230707, 26.427758946159617], [88.92296326998455, 26.423786379710315], [88.92626044409207, 26.406902972300767], [88.90482881239328, 26.40888925552542], [88.91834722623405, 26.400282028218594], [88.90911513873303, 26.38041919597207], [88.9213146829308, 26.37743977113509], [88.91076372578678, 26.36817044942005], [88.93681140123608, 26.35691484448035], [88.95857275034562, 26.361880552541983], [88.94637320614785, 26.346652381152982], [88.95890246775637, 26.344004003520112], [88.95593501105961, 26.330431068151654], [88.96121048963163, 26.352611230826938], [88.98626901284867, 26.34896971158174], [88.98527986061642, 26.333079445784524], [89.00077657892169, 26.330431068151654], [88.99154449142068, 26.322485935253045], [88.99681996999269, 26.313878707946216], [88.98495014320567, 26.31851336880374], [88.98264212133041, 26.310237188701024], [88.99747940481419, 26.29997472537365], [88.99583081776044, 26.2903743564545], [89.0073709271367, 26.304609386231174], [89.01858131910222, 26.29004330925039], [89.02154877579898, 26.309244047088697], [89.01957047133448, 26.29004330925039], [89.04100210303326, 26.286070742801087], [89.04495871196228, 26.27547723226961], [89.05056390794503, 26.288719120433953], [89.04133182044401, 26.29004330925039], [89.05913656062455, 26.293684828495586], [89.06243373473205, 26.278787704310695], [89.05419079946329, 26.277463515494258], [89.0627634521428, 26.25594544722719], [89.05122334276653, 26.255283352818974], [89.05089362535578, 26.241379370246406], [88.98231240391966, 26.244689842287496], [88.95362698918436, 26.264883721738126], [88.9786855124014, 26.244358795083386], [88.95692416329186, 26.240386228634083], [88.92626044409207, 26.284084459576434], [88.89823446417826, 26.288719120433953], [88.87581368024722, 26.286732837209303], [88.8613061141742, 26.272828854636735], [88.8613061141742, 26.25197288077789], [88.87845141953322, 26.2334342373478], [88.84284193917216, 26.230785859714928], [88.81283765479385, 26.255614400023084], [88.81910228559812, 26.294677970107912], [88.79338432755958, 26.310237188701024], [88.76008286907377, 26.300636819781868], [88.76041258648452, 26.329768973743437], [88.74359699853623, 26.288719120433953], [88.71754932308694, 26.288388073229846], [88.71886819272994, 26.2791187515148], [88.68457758201188, 26.2751461850655], [88.68886390835164, 26.265876863350453], [88.67798323379687, 26.255283352818974], [88.6644648199561, 26.257931730451844], [88.6684214288851, 26.293684828495586], [88.68325871236888, 26.278125609902474], [88.70600921371067, 26.28507760118876], [88.68292899495813, 26.291036450862716], [88.67270775522486, 26.314540802354436], [88.69150164763764, 26.324803265681805], [88.6944691043344, 26.30791985827226], [88.74458615076848, 26.320499652028392], [88.74689417264374, 26.330100020947544], [88.73238660657071, 26.326789548906458], [88.74359699853623, 26.346652381152982], [88.73271632398146, 26.352942278031048], [88.7004040177279, 26.329437926539327], [88.68754503870863, 26.361218458133763], [88.69315023469139, 26.37181196866524], [88.68095069049362, 26.37512244070633], [88.7010634525494, 26.386378045646026], [88.66941058111735, 26.394654225748745], [88.68622616906563, 26.399950981014484], [88.68523701683338, 26.410213444341856], [88.6677619940636, 26.404254594667897], [88.64468177531106, 26.415510199607596], [88.64896810165081, 26.42643475734318], [88.62193127396927, 26.43206255981303], [88.62061240432627, 26.469139846673208], [88.59687275075223, 26.469801941081425], [88.59027840253721, 26.44729073120203], [88.55796609628365, 26.457222147325293], [88.5563175092299, 26.483374876449883], [88.52994011636986, 26.47840916838825], [88.52037831145809, 26.508203416758036], [88.48872544002603, 26.508865511166253], [88.48312024404326, 26.539321853944255], [88.45773200341547, 26.543956514801778], [88.44520274180695, 26.53303195706619], [88.42113337082216, 26.56315725264008], [88.4148687400179, 26.62903564625772], [88.40003145653412, 26.64426381764672], [88.40959326144589, 26.63135297668648], [88.38717247751485, 26.61248328605228], [88.39871258689112, 26.603876058745456], [88.37662152037083, 26.59526883143863], [88.34925497527853, 26.51250703041145], [88.3334285395625, 26.497278859022448], [88.35057384492153, 26.448614920018468], [88.3607950846548, 26.45523586410064], [88.3607950846548, 26.484699065266316], [88.37266491144182, 26.48933372612384], [88.3875021949256, 26.479733357204687], [88.40299891323087, 26.48701639569508], [88.41849563153616, 26.46649146904034], [88.42673856680491, 26.474105554734837], [88.48443911368628, 26.461194713774596], [88.47883391770351, 26.45258748646777], [88.4956495056518, 26.43735931507877], [88.48872544002603, 26.431069418200703], [88.5015844190453, 26.418489624444575], [88.49531978824103, 26.410213444341856], [88.51774057217209, 26.39068165929944], [88.51180565877857, 26.37743977113509], [88.52400520297634, 26.37512244070633], [88.51444339806457, 26.36519102458307], [88.52202689851184, 26.360556363725546], [88.50389244092055, 26.34896971158174], [88.50718961502807, 26.36287369415431], [88.48839572261528, 26.360556363725546], [88.48377967886476, 26.349631805989958], [88.46234804716599, 26.35757693888857], [88.45641313377247, 26.377108723930984], [88.43498150207368, 26.335727823417393], [88.40266919582012, 26.330100020947544], [88.4148687400179, 26.31652708557909], [88.38420502081809, 26.313878707946216], [88.34859554045703, 26.28209817635178], [88.34727667081403, 26.25362811679843], [88.35914649760105, 26.242372511858733], [88.35090356233228, 26.221516537999886], [88.31991012572173, 26.203308941773905], [88.29056527616493, 26.20264684736569], [88.27506855785964, 26.188080770384904], [88.24209681678458, 26.189736006405447], [88.22692981589006, 26.169542126954816], [88.196595814101, 26.164245371689077], [88.19494722704725, 26.152327672341162], [88.17879107392048, 26.149679294708292], [88.17846135650973, 26.124188659991923], [88.15834859445394, 26.09836697807144], [88.16494294266894, 26.087442420335854], [88.15768915963244, 26.079497287437245], [88.18208824802798, 26.073538437763286], [88.17846135650973, 26.046392567026373], [88.16824011677646, 26.04440628380172], [88.18208824802798, 26.02652973477985], [88.13955470204115, 26.013949941023718], [88.1438410283809, 26.00302538328813], [88.12933346230788, 25.997066533614174], [88.11383674400261, 25.958665057937562], [88.12109052703912, 25.948071547406084], [88.11053956989511, 25.932512328812972], [88.09306454712532, 25.930194998384213], [88.0864701989103, 25.913642638178775], [88.09438341676832, 25.909007977321252], [88.08943765560707, 25.89675923076923], [88.10229663462634, 25.88980723948295], [88.09372398194682, 25.87391697368573], [88.10196691721559, 25.861668227133705], [88.11020985248435, 25.867627076807665], [88.10163719980484, 25.82955664833516], [88.12010137480686, 25.812673240925616], [88.11515561364561, 25.79876925835305], [88.14450046320242, 25.79413459749553], [88.15109481141742, 25.775927001269547], [88.18439626990323, 25.802410777598247], [88.20978451053104, 25.787844700617462], [88.21604914133529, 25.8007555415777], [88.23055670740831, 25.796782975128398], [88.24011851232008, 25.810686957700966], [88.26155014401887, 25.813666382537942], [88.27506855785964, 25.792810408679095], [88.26748505741239, 25.782216898147613], [88.31628323420347, 25.752753696981937], [88.32122899536473, 25.73719447838883], [88.37431349849558, 25.71600745732587], [88.37233519403107, 25.69614462507935], [88.40431778287387, 25.684557972935544], [88.40233947840937, 25.671978179179412], [88.45476454671872, 25.6640330462808], [88.45641313377247, 25.628279948237058], [88.4461918940392, 25.61503806007271], [88.4461918940392, 25.59517522782619], [88.45608341636172, 25.598485699867275], [88.46828296055949, 25.582926481274164], [88.49927639717005, 25.58391962288649], [88.49400091859803, 25.55809794096601], [88.52334576815484, 25.53459358947429], [88.53290757306661, 25.541545580760577], [88.53983163869238, 25.5084408603497], [88.55400948735465, 25.521020654105833], [88.58797038066196, 25.50645457712505], [88.60874257753925, 25.516385993248313], [88.62226099138002, 25.497185255410006], [88.64830866682931, 25.496854208205896], [88.64633036236481, 25.477653470367592], [88.66017849361634, 25.4816260368169], [88.66281623290234, 25.474011951122396], [88.6997445829064, 25.471363573489526], [88.70996582263967, 25.48063289520457], [88.70864695299667, 25.500164680246986], [88.74260784630398, 25.50479934110451], [88.74491586817923, 25.487584886490854], [88.76502863023502, 25.494536877777136], [88.77096354362854, 25.503144105083962], [88.75975315166302, 25.52499322055514], [88.77953619630804, 25.515061804431877], [88.8111890677401, 25.523337984534596], [88.81217821997235, 25.489240122511397], [88.82965324274214, 25.489902216919614], [88.83921504765391, 25.458452732529288], [88.82602635122389, 25.442893513936177], [88.83031267756364, 25.416740784811587], [88.81217821997235, 25.410119840729415], [88.84053391729691, 25.397208999769173], [88.84020419988616, 25.363442184950085], [88.8685598972107, 25.35185553280628], [88.86625187533545, 25.341593069478908], [88.88339718069449, 25.324709662069363], [88.88801322444499, 25.33596526700906], [88.90614768203628, 25.33662736141728], [88.91570948694805, 25.311136726700905], [88.92823874855657, 25.3147782459461], [88.93911942311134, 25.2995500745571], [88.98462042579492, 25.30484682982284], [89.00011714410019, 25.294915413699577], [89.0086897967797, 25.301867404985863], [89.00770064454746, 25.263134882105142], [88.98725816508092, 25.27372839263662], [88.95230811954136, 25.24757566351203], [88.96154020704238, 25.207849999018986], [88.93878970570059, 25.210829423855962], [88.93483309677157, 25.199242771712157], [88.94769207579085, 25.19361496924231], [88.9486812280231, 25.17540737301633], [88.93483309677157, 25.180042033873853], [88.9206552481093, 25.16547595689307], [88.91010429096528, 25.179379939465637], [88.87614339765797, 25.17838679785331], [88.87416509319347, 25.19593229967107], [88.86493300569245, 25.1893113555889], [88.8652627231032, 25.199573818916267], [88.84317165658291, 25.213477801488835], [88.80624330657885, 25.16977957054648], [88.77459043514679, 25.17838679785331], [88.77030410880704, 25.18898030838479], [88.7498616293405, 25.176400514628657], [88.73469462844596, 25.18401460032316], [88.73337575880296, 25.19858067730394], [88.68721532129788, 25.208843140631313], [88.67138888558186, 25.19858067730394], [88.613028903879, 25.20387743256968], [88.57840857575019, 25.177062609036874], [88.55994440074815, 25.17507632581222], [88.55796609628365, 25.192290780425875], [88.53422644270961, 25.187325072364246], [88.53686418199561, 25.197587535691614], [88.49729809270555, 25.211160471060072], [88.47454759136376, 25.213477801488835], [88.46333719939824, 25.195601252466965], [88.43564093689518, 25.200235913324484], [88.4415758502887, 25.174083184199898], [88.46069946011222, 25.14991673829996], [88.44190556769945, 25.127074481216457], [88.45311595966497, 25.079072636620694], [88.43531121948443, 25.055568285128974], [88.45278624225422, 25.036698594494776], [88.43663008912743, 25.006904346124994], [88.42508997975116, 25.016173667840036], [88.4122310007319, 24.99796607161406], [88.4161876096609, 24.973468578510012], [88.40464750028463, 24.979427428183968], [88.39442626055136, 24.969827059264816], [88.39772343465887, 24.94566061336488], [88.38057812929983, 24.939701763690923], [88.36310310653005, 24.953605746263488], [88.34002288777751, 24.94069490530325], [88.3360662788485, 24.918845789832073], [88.32419645206149, 24.913880081770444], [88.34595780117102, 24.894348296728026], [88.32782334357974, 24.871174992440416], [88.31925069090022, 24.884747927808874], [88.30243510295195, 24.872168134052743], [88.3014459507197, 24.886403163829417], [88.27770629714566, 24.889051541462287], [88.27638742750266, 24.897989815973226], [88.25792325250062, 24.87845803093081], [88.26319873107262, 24.911231704137574], [88.22594066365781, 24.959895643141554], [88.16988870383021, 24.950295274222402], [88.15702972481094, 24.934073961221074], [88.13757639757665, 24.936060244445727], [88.1398844194519, 24.913880081770444], [88.16889955159796, 24.892362013503377], [88.15175424623892, 24.885078975012984], [88.17450474758071, 24.860912529113047], [88.16098633373994, 24.848994829765132], [88.1405438542734, 24.84998797137746], [88.14647876766692, 24.843367027295287], [88.13131176677238, 24.836083988804894], [88.1352683757014, 24.805296598822782], [88.12207967927138, 24.823173147844653], [88.10427493909084, 24.80099298516937], [88.10460465650159, 24.779805964106412], [88.08811878596406, 24.7831164361475], [88.06800602390828, 24.770536642391367], [88.06174139310401, 24.721872703387383], [88.02745078238596, 24.691085313405274], [88.048552696674, 24.670891433954644], [88.05086071854925, 24.652683837728663], [88.0877890685533, 24.61659969248081], [88.10889098284134, 24.577536122395983], [88.1065829609661, 24.554362818108373], [88.13296035382615, 24.509671445553696], [88.18307740026023, 24.489477566103062], [88.19165005293975, 24.475573583530498], [88.33507712661626, 24.443130957527842], [88.38255643376434, 24.39546016013619], [88.47916363511426, 24.35341716521438], [88.49597922306255, 24.328919672110334], [88.52532407261934, 24.315346736741876], [88.55928496592665, 24.308063698251487], [88.56719818378467, 24.326271294477465], [88.5863217936082, 24.32461605845692], [88.59786190298448, 24.311043123088464], [88.64863838424006, 24.310712075884354], [88.65193555834757, 24.29945647094466], [88.68358842977963, 24.32428501125281], [88.72612197576646, 24.296145998903572], [88.74128897666098, 24.254103003981765], [88.73172717174921, 24.174320627791563], [88.74656445523298, 24.14717475705465], [88.6971068436204, 24.119035744705407], [88.70073373513866, 24.096855582030123], [88.72414367130195, 24.104469667724622], [88.72348423648045, 24.06871656968088], [88.73766208514273, 24.061433531190488], [88.72678141058796, 24.052826303883663], [88.74260784630398, 24.035280802065902], [88.72842999764171, 23.99654827918518], [88.76041258648452, 24.005817600900226], [88.76898523916402, 23.982644296612612], [88.73667293291047, 23.980326966183853], [88.73238660657071, 23.96079518114144], [88.74326728112548, 23.930007791159326], [88.73469462844596, 23.932987215996306], [88.73304604139221, 23.91113810052513], [88.7004040177279, 23.91180019493335], [88.70502006147842, 23.90054458999365], [88.68820447353013, 23.90120668440187], [88.66413510254534, 23.882336993767673], [88.66743227665285, 23.86975720001154], [88.62555816548752, 23.86479149194991], [88.61632607798651, 23.876047096889607], [88.60742370789625, 23.86214311431704], [88.58467320655446, 23.86975720001154], [88.57675998869644, 23.852211698193777], [88.59126755476946, 23.852873792601997], [88.58665151101896, 23.83102467713082], [88.60214822932423, 23.816789647354145], [88.58764066325121, 23.81347917531306], [88.59588359851998, 23.80487194800623], [88.57840857575019, 23.785671210167926], [88.5563175092299, 23.783353879739167], [88.57972744539319, 23.773422463615905], [88.56983592307067, 23.746938687287205], [88.57708970610719, 23.734689940735183], [88.56489016190942, 23.7125097780599], [88.57412224941044, 23.667818405505223], [88.55796609628365, 23.648617667666915], [88.56225242262342, 23.636368921114894], [88.59357557664471, 23.64001044036009], [88.59324585923396, 23.61650608886837], [88.58005716280394, 23.602271059091695], [88.6450114927218, 23.60889200317387], [88.6384171445068, 23.591346501356107], [88.65127612352607, 23.58505660447804], [88.65424358022283, 23.55658654492469], [88.67897238602912, 23.545330939984996], [88.6971068436204, 23.516198786023427], [88.7238139538912, 23.51255726677823], [88.74062954183948, 23.48011464077558], [88.75876399943076, 23.4771352159386], [88.76074230389527, 23.489052915286514], [88.77459043514679, 23.47945254636736], [88.76865552175327, 23.491039198511167], [88.78646026193381, 23.506598417104275], [88.78283337041556, 23.49799118979745], [88.79503291461333, 23.500970614634426], [88.80129754541758, 23.485411396041318], [88.78711969675531, 23.468527988631774], [88.79470319720258, 23.442706306711294], [88.7805253485403, 23.436085362629118], [88.76272060835977, 23.44601677875238], [88.75414795568025, 23.415560435974378], [88.76107202130602, 23.408277397483985], [88.74887247710825, 23.398345981360723], [88.76535834764577, 23.36788963858272], [88.74755360746524, 23.361599741704655], [88.74458615076848, 23.348357853540307], [88.73205688915996, 23.352330419989613], [88.73898095478573, 23.343392145478678], [88.73271632398146, 23.327501879681456], [88.749202194519, 23.3215430300075], [88.74491586817923, 23.307639047434936], [88.73205688915996, 23.307308000230826], [88.72974886728471, 23.319556746782848], [88.72546254094495, 23.299031820128107], [88.70633893112142, 23.30399752818974], [88.71062525746117, 23.312604755496565], [88.6957879739774, 23.302342292169197], [88.72348423648045, 23.2722169965953], [88.71853847531919, 23.25467149477754], [88.7538182382695, 23.235801804143343], [88.71227384451493, 23.237788087367996], [88.70996582263967, 23.232491332102256], [88.7524993686265, 23.23447761532691], [88.76733665211027, 23.245402173062494], [88.7785470440758, 23.22057363275434], [88.8072324588111, 23.218918396733798], [88.81085935032935, 23.255995683593973], [88.82800465568839, 23.245071125858388], [88.82305889452712, 23.232822379306363], [88.83657730836791, 23.242753795429625], [88.84514996104741, 23.230174001673493], [88.85504148336993, 23.235801804143343], [88.88570520256974, 23.22620143522419], [88.90614768203628, 23.235801804143343], [88.9140608998943, 23.212959547059842], [88.92659016150282, 23.217263160713255], [88.94208687980809, 23.20567650856945], [88.96978314231114, 23.221897821570778], [88.97769636016915, 23.21362164146806], [88.97505862088315, 23.22355305759132], [88.99451194811743, 23.214283735876275], [88.97901522981216, 23.212628499855732], [88.98659873025942, 23.20236603652836], [88.97967466463366, 23.18184110987362], [88.96417794632838, 23.19276566760921], [88.93845998828984, 23.176213307403774], [88.92724959632432, 23.1619782776271], [88.92988733561032, 23.141784398176465], [88.92098496552005, 23.142777539788792], [88.89922361641051, 23.111990149806683], [88.8659221579247, 23.100403497662874], [88.87383537578272, 23.089809987131396], [88.8606466793527, 23.077561240579374], [88.88339718069449, 23.040815000923306], [88.87086791908597, 23.01697960222748], [88.87944057176547, 23.00605504449189], [88.84613911327966, 23.009365516532977], [88.8665815927462, 23.000096194817935], [88.87152735390747, 22.978247079346758], [88.85767922265593, 22.96798461601939], [88.8599872445312, 22.943487122915343], [88.89427785524926, 22.953087491834495], [88.88801322444499, 22.933224659587975], [88.90977457355453, 22.917665440994863], [88.89724531194601, 22.91303078013734], [88.89691559453526, 22.897140514340123], [88.92757931373507, 22.87198092682786], [88.9460434887371, 22.88025710693058], [88.9694534249004, 22.84384191447862], [88.95923218516712, 22.79683321149518], [88.93878970570059, 22.792860645045877], [88.91241231284053, 22.757769641410352], [88.9219741177523, 22.75313498055283], [88.91636892176955, 22.734596337122742], [88.92823874855657, 22.717712929713198], [88.96252935927463, 22.69321543660915], [88.92626044409207, 22.64984825287091], [88.93615196641458, 22.6266749485833], [88.95923218516712, 22.61409515482717], [88.93878970570059, 22.587280331294362], [88.94406518427259, 22.560465507761556], [88.96219964186388, 22.547223619597204], [88.97439918606165, 22.497566538980898], [88.99681996999269, 22.46876543222344], [88.98989590436693, 22.443605844711175], [89.00044686151094, 22.4293708149345], [88.9727505990079, 22.411163218708523], [88.99187420883143, 22.39096933925789], [88.98462042579492, 22.32641513445669], [88.99978742668944, 22.324759898436145], [89.02517566731724, 22.29860716931156], [88.99945770927869, 22.296620886086906], [88.99517138293893, 22.28735156437186], [89.02121905838823, 22.268481873737663], [89.01297612311947, 22.255571032777425], [89.03308888517525, 22.25921255202262], [89.04133182044401, 22.23041144526516], [89.06507147401805, 22.20723814097755], [89.07133610482232, 22.156587918748915], [89.09573519321786, 22.16022943799411], [89.09309745393186, 22.146325455421547], [89.05715825616005, 22.11951063188874], [89.05517995169554, 22.128117859195566], [89.04232097267627, 22.097661516417563], [89.05221249499878, 22.053632238271106], [89.07858988785884, 22.019534376247908], [89.06869836553632, 21.94869027456864], [89.0307808633, 21.92849639511801], [89.00044686151094, 21.94835922736453], [89.0060520574937, 21.962594257141205], [88.99517138293893, 21.9622632099371], [88.98725816508092, 21.949683416180967], [89.01231668829797, 21.927503253505684], [89.00770064454746, 21.902674713197527], [88.9720911641864, 21.92253754544405], [88.9734100338294, 21.944386660915228], [88.95791331552412, 21.929158489526227], [88.93252507489632, 21.942731424894685], [88.93054677043182, 21.96491158756997], [88.9460434887371, 21.99503688314386], [88.93714111864684, 22.054625379883433], [88.9753883382939, 22.070846692884757], [88.98725816508092, 22.110241310173695], [88.9727505990079, 22.084750675457325], [88.92988733561032, 22.06323260719026], [88.93252507489632, 22.00331306324658], [88.92098496552005, 21.984112325408272], [88.91241231284053, 22.028141603554733], [88.92527129185981, 22.05528747429165], [88.90383966016103, 22.068860409660108], [88.92790903114582, 22.104944554907956], [88.89229955078476, 22.068198315251887], [88.88966181149874, 22.053632238271106], [88.90614768203628, 22.052970143862886], [88.90120192087501, 21.93114477275088], [88.85306317890543, 21.92253754544405], [88.78876828380906, 21.955311218650817], [88.76338004318127, 21.955311218650817], [88.75843428202, 21.983781278204166], [88.81679426372287, 21.968222059611055], [88.76502863023502, 21.98974012787812], [88.76535834764577, 21.99801630798084], [88.74656445523298, 21.98940908067401], [88.76239089094902, 22.0155618097986], [88.755796542734, 22.04734234139304], [88.77294184809304, 22.054625379883433], [88.750521064162, 22.058928993536846], [88.77953619630804, 22.089385336314848], [88.78415224005856, 22.107592932540825], [88.75019134675125, 22.082102297824456], [88.74095925925023, 22.053301191066996], [88.70337147442466, 22.073495070517627], [88.7485427596975, 22.131097284032546], [88.77360128291454, 22.140697652951697], [88.76107202130602, 22.14798069144209], [88.73898095478573, 22.14500126660511], [88.68721532129788, 22.077467636966933], [88.69875543067415, 22.05495642708754], [88.73799180255348, 22.033107311616366], [88.73832151996423, 22.01357552657395], [88.68985306058389, 21.97418090928501], [88.6951285391559, 21.957297501875466], [88.68226956013663, 21.945379802527555], [88.63314166593479, 21.954980171446707], [88.63314166593479, 21.994043741531534], [88.65721103691958, 22.024500084309537], [88.66149736325934, 22.056611663108082], [88.63742799227454, 22.112558640602458], [88.65622188468733, 22.16850561809683], [88.68391814719038, 22.20723814097755], [88.7030417570139, 22.208562329793985], [88.6403954489713, 22.215845368284377], [88.65885962397333, 22.237032389347334], [88.66083792843784, 22.245639616654163], [88.65028697129382, 22.24861904149114], [88.63182279629179, 22.21253489624329], [88.67336719004636, 22.203927668936462], [88.64072516638205, 22.164533051647528], [88.6410548837928, 22.140697652951697], [88.607753425307, 22.100971988458653], [88.62259070879077, 22.095344185988804], [88.63742799227454, 22.04734234139304], [88.62160155655852, 22.022844848288994], [88.60181851191348, 22.030458933983496], [88.61698551280801, 22.01390657377806], [88.59885105521673, 21.982126042183623], [88.61401805611125, 21.939752000057705], [88.60148879450273, 21.93842781124127], [88.60676427307475, 21.91790288458653], [88.59357557664471, 21.895722721911245], [88.57972744539319, 21.891750155461942], [88.57148451012442, 21.910950893300246], [88.56719818378467, 21.900357382768767], [88.54345853021063, 21.903998902013964], [88.54774485655038, 21.884798164175656], [88.53191842083436, 21.85334867978533], [88.4963089404733, 21.87917036170581], [88.52565379003009, 21.91823393179064], [88.50191413645605, 21.89704691072768], [88.52565379003009, 21.92518592307692], [88.5015844190453, 21.967559965202838], [88.50982735431407, 21.980801853367186], [88.54016135610313, 21.98841593906169], [88.51444339806457, 21.98974012787812], [88.4982872449378, 21.976498239713774], [88.50521131056355, 21.92551697028103], [88.47059098243474, 21.901019477176984], [88.45674285118322, 21.903998902013964], [88.45410511189722, 21.944717708119335], [88.46564522127349, 21.961601115528882], [88.44586217662845, 21.987422797449362], [88.46036974270147, 21.958621690691903], [88.45113765520045, 21.945379802527555], [88.44322443734245, 21.950345510589184], [88.4448730243962, 21.91724079017831], [88.41190128332114, 21.905985185238617], [88.40102060876637, 21.891088061053722], [88.39112908644385, 21.89671586352357], [88.40168004358787, 21.92253754544405], [88.38288615117509, 21.96656682359051], [88.40728523957063, 21.9927195527151], [88.3881616297471, 22.004306204858906], [88.40266919582012, 21.98808489185758], [88.37464321590633, 21.9662357763864], [88.39508569537286, 21.924523828668704], [88.37958897706758, 21.900357382768767], [88.39244795608685, 21.88678444740031], [88.37892954224608, 21.844079358070285], [88.38189699894284, 21.795084371862195], [88.3634328239408, 21.80369159916902], [88.35584932349354, 21.82686490345663], [88.3594762150118, 21.804684740781347], [88.29122471098643, 21.778532011656758], [88.26220957884037, 21.805346835189564], [88.30441340741645, 21.830506422701827], [88.32914221322274, 21.859969623867503], [88.35156299715378, 21.854010774193547], [88.35584932349354, 21.82719595066074], [88.37266491144182, 21.905985185238617], [88.35321158420754, 21.93908990564949], [88.35090356233228, 21.971201484448034], [88.34727667081403, 21.935448386404293], [88.36574084581606, 21.9053230908304], [88.35354130161829, 21.866921615153785], [88.31166719045297, 21.859638576663396], [88.30507284223795, 21.876853031277047], [88.29221386321868, 21.864273237520916], [88.26056099178662, 21.864935331929136], [88.27473884044889, 21.89936424115644], [88.2767171449134, 21.94571084973166], [88.27243081857364, 21.959945879508336], [88.26155014401887, 21.9622632099371], [88.27045251410914, 21.952000746609727], [88.27012279669839, 21.89936424115644], [88.25396664357162, 21.859969623867503], [88.2981487766122, 21.856328104622307], [88.30375397259495, 21.84308621645796], [88.26253929625112, 21.818257676149805], [88.25594494803612, 21.80104322153615], [88.28133318866391, 21.7573449905938], [88.26814449223389, 21.728212836632235], [88.30243510295195, 21.6699485287091], [88.28627894982516, 21.610691079173638], [88.3027648203627, 21.58155892521207], [88.25990155696512, 21.55639933769981], [88.23583218598033, 21.573613792313463], [88.22000575026429, 21.604070135091465], [88.23616190339108, 21.645119988400946], [88.22989727258681, 21.66961748150499], [88.20286044490527, 21.68252832246523], [88.22000575026429, 21.702060107507645], [88.21011422794179, 21.724902364591145], [88.21209253240629, 21.78316667251428], [88.193958074815, 21.843748310866175], [88.1639537904367, 21.883473975359223], [88.1646132252582, 21.9433935193029], [88.14581933284542, 21.955311218650817], [88.20780620606652, 22.02648636753419], [88.22231377213956, 22.07283297610941], [88.21934631544279, 22.102627224479196], [88.18307740026023, 22.187375308731028], [88.10328578685859, 22.21485222667205], [88.06668715426528, 22.20955547140631], [88.0838324596243, 22.240342861388424], [88.08152443774905, 22.26119883524727], [88.06767630649753, 22.255571032777425], [88.05811450158576, 22.234052964510358], [88.03437484801172, 22.219155840325463], [87.99744649800765, 22.244977522245946], [87.9905224323819, 22.22544573720353], [88.01459180336668, 22.20260348012003], [88.04327721810198, 22.20492081054879], [88.07295178506953, 22.184726931098158]]], [[[88.22758925071156, 21.4839], [88.20549818419127, 21.503431785042412], [88.21571942392454, 21.54050907190259], [88.22758925071156, 21.538522788677938], [88.2427562516061, 21.505087021062955], [88.23649162080183, 21.486879424836978], [88.22758925071156, 21.4839]]], [[[88.33969317036676, 21.572951697905243], [88.34134175742051, 21.55772352651624], [88.33375825697325, 21.54282640233135], [88.33969317036676, 21.572951697905243]]], [[[88.5856623587867, 21.562689234577874], [88.59357557664471, 21.56633075382307], [88.59027840253721, 21.555406196087482], [88.5856623587867, 21.562689234577874]]], [[[88.53488587753111, 21.578248453170982], [88.54345853021063, 21.531239750187545], [88.51015707172482, 21.532563939003982], [88.48575798332928, 21.55805457372035], [88.49663865788405, 21.5977802382134], [88.53488587753111, 21.578248453170982]]], [[[88.34397949670652, 21.582221019620288], [88.34463893152802, 21.593145577355877], [88.35914649760105, 21.567654942639503], [88.34397949670652, 21.582221019620288]]], [[[88.56587931414167, 21.56302028178198], [88.54906372619338, 21.565006565006634], [88.53158870342361, 21.59744919100929], [88.51345424583232, 21.598773379825722], [88.52136746369034, 21.651409885279012], [88.58467320655446, 21.601421757458596], [88.56587931414167, 21.56302028178198]]], [[[88.57379253199969, 21.688818219343297], [88.60511568602098, 21.61499469282705], [88.5596146833374, 21.64147846915575], [88.57379253199969, 21.688818219343297]]], [[[88.19362835740425, 21.684183558485774], [88.22495151142556, 21.665975962259793], [88.22725953330081, 21.652734074095445], [88.21209253240629, 21.595793954988746], [88.17978022615273, 21.671272717525532], [88.18175853061723, 21.686169841710427], [88.20714677124502, 21.709012098793927], [88.19362835740425, 21.684183558485774]]], [[[88.34332006188502, 21.63055391142016], [88.32056956054323, 21.60704955992844], [88.30869973375621, 21.60704955992844], [88.30507284223795, 21.62095354250101], [88.31562379938197, 21.65604454613653], [88.31199690786372, 21.706694768365168], [88.33771486590226, 21.697756493854232], [88.34925497527853, 21.680210992036468], [88.34332006188502, 21.63055391142016]]], [[[88.3861833252826, 21.632209147440705], [88.38255643376434, 21.681204133648794], [88.40365834805237, 21.719936656529516], [88.37068660697732, 21.72622655340758], [88.3907993690331, 21.74178577200069], [88.40629608733838, 21.732847497489754], [88.42047393600066, 21.70272220191586], [88.40959326144589, 21.65372721570777], [88.43036545832318, 21.62558820335853], [88.39904230430187, 21.588841963702464], [88.3861833252826, 21.6053943239079], [88.3960748476051, 21.619298306480466], [88.3861833252826, 21.632209147440705]]], [[[88.56258214003417, 21.702060107507645], [88.56587931414167, 21.67690051999538], [88.54642598690738, 21.64081637474753], [88.53026983378061, 21.65604454613653], [88.52169718110109, 21.71662618448843], [88.54213966056763, 21.70106696589532], [88.56258214003417, 21.702060107507645]]], [[[88.43827867618118, 21.629229722603725], [88.4175064793039, 21.657699782157078], [88.42113337082216, 21.688818219343297], [88.43333291501993, 21.70073591869121], [88.42410082751891, 21.752710329736278], [88.4501485029682, 21.791442852617], [88.46795324314874, 21.789787616596456], [88.45377539448647, 21.75999336822667], [88.4514673726112, 21.71894351491719], [88.47059098243474, 21.674583189566622], [88.45278624225422, 21.611022126377748], [88.43201404537693, 21.601090710254486], [88.43827867618118, 21.629229722603725]]], [[[88.20022270561927, 21.723578175774712], [88.20088214044077, 21.710336287610364], [88.18340711767098, 21.694446021813143], [88.20022270561927, 21.723578175774712]]], [[[88.3594762150118, 21.735164827918517], [88.37167575920957, 21.718281420508973], [88.39046965162235, 21.716957231692536], [88.3927776734976, 21.7080189571816], [88.36244367170855, 21.686500888914534], [88.34200119224202, 21.70570162675284], [88.34727667081403, 21.75966232102256], [88.36672999804831, 21.761979651451323], [88.3594762150118, 21.735164827918517]]], [[[88.53455616012036, 21.729537025448668], [88.51971887663659, 21.725233411795255], [88.50784904984957, 21.747082527266432], [88.51213537618932, 21.779856200473194], [88.54378824762138, 21.811305684863523], [88.56785761860617, 21.792104947025216], [88.55532835699765, 21.761317557043107], [88.57049535789217, 21.756682896185584], [88.56719818378467, 21.733178544693864], [88.6070939904855, 21.6851767000981], [88.59654303334148, 21.657699782157078], [88.5843434891437, 21.688818219343297], [88.53290757306661, 21.720598750937732], [88.53455616012036, 21.729537025448668]]], [[[88.20516846678052, 21.75999336822667], [88.20154157526227, 21.73119226146921], [88.1972552489225, 21.7421168192048], [88.20516846678052, 21.75999336822667]]], [[[88.29188414580793, 21.77224211477869], [88.30177566813045, 21.71894351491719], [88.28528979759291, 21.734833780714407], [88.29188414580793, 21.77224211477869]]], [[[88.38585360787185, 21.76032441543078], [88.38453473822884, 21.745427291245885], [88.36310310653005, 21.737813205551387], [88.37200547662032, 21.764628029084193], [88.38585360787185, 21.76032441543078]]], [[[88.32749362616899, 21.707356862773384], [88.30639171188095, 21.715301995671993], [88.30177566813045, 21.77753887004443], [88.3542007364398, 21.796077513474522], [88.36936773733431, 21.792435994229326], [88.36771915028056, 21.770255831554042], [88.34200119224202, 21.760986509838997], [88.34299034447427, 21.728212836632235], [88.32419645206149, 21.727550742224015], [88.32749362616899, 21.707356862773384]]], [[[88.43827867618118, 21.79376018304576], [88.41882534894691, 21.766283265104736], [88.42014421858991, 21.72655760061169], [88.38189699894284, 21.779525153269084], [88.41783619671465, 21.807664165618327], [88.43827867618118, 21.79376018304576]]], [[[88.26781477482314, 21.787801333371803], [88.2793548841994, 21.785484002943043], [88.27539827527039, 21.778863058860868], [88.26781477482314, 21.787801333371803]]], [[[88.49861696234855, 21.815609298516936], [88.48674713556153, 21.802367410352588], [88.45740228600472, 21.807995212822433], [88.48641741815078, 21.83547213076346], [88.49861696234855, 21.815609298516936]]], [[[88.57544111905344, 21.817926628945695], [88.58862981548346, 21.848714018927808], [88.61401805611125, 21.830837469905937], [88.607753425307, 21.798063796699175], [88.58895953289421, 21.801705315944368], [88.57544111905344, 21.817926628945695]]], [[[88.52400520297634, 21.845072499682612], [88.52037831145809, 21.828189092273067], [88.4976278101163, 21.83282375313059], [88.50257357127755, 21.85301763258122], [88.52400520297634, 21.845072499682612]]], [[[88.5556580744084, 21.882480833746897], [88.55532835699765, 21.818257676149805], [88.53323729047736, 21.84308621645796], [88.5556580744084, 21.882480833746897]]], [[[88.39970173912337, 21.87652198407294], [88.42047393600066, 21.900688429972877], [88.44388387216395, 21.906978326850943], [88.4722395694885, 21.891750155461942], [88.48971459225828, 21.84772087731548], [88.48279052663251, 21.839775744416873], [88.46234804716599, 21.8447414524785], [88.46531550386274, 21.830506422701827], [88.4455324592177, 21.813291968088173], [88.45674285118322, 21.79707065508685], [88.41948478376841, 21.813623015292283], [88.39871258689112, 21.80633997680189], [88.39970173912337, 21.87652198407294]]], [[[88.5582958136944, 21.83282375313059], [88.5569769440514, 21.87354255923596], [88.57346281458894, 21.877515125685267], [88.5582958136944, 21.83282375313059]]], [[[88.57247366235669, 21.89704691072768], [88.57313309717819, 21.884798164175656], [88.55928496592665, 21.88413606976744], [88.56225242262342, 21.8940674858907], [88.57247366235669, 21.89704691072768]]], [[[88.47652589582826, 21.900026335564657], [88.48839572261528, 21.90797146846327], [88.48476883109703, 21.89671586352357], [88.47652589582826, 21.900026335564657]]], [[[88.51411368065382, 21.91823393179064], [88.51543255029682, 21.937103622424836], [88.51971887663659, 21.921544403831724], [88.51411368065382, 21.91823393179064]]], [[[88.8926292681955, 21.58155892521207], [88.90449909498253, 21.547461063188873], [88.86987876685372, 21.53223289179987], [88.83328013426039, 21.55341991286283], [88.82965324274214, 21.6053943239079], [88.8926292681955, 21.58155892521207]]], [[[88.59489444628773, 21.582552066824398], [88.60082935968123, 21.584869397253158], [88.60115907709198, 21.578910547579202], [88.59489444628773, 21.582552066824398]]], [[[88.70567949629992, 21.60009756864216], [88.71853847531919, 21.6358506666859], [88.73040830210621, 21.63055391142016], [88.73205688915996, 21.64081637474753], [88.77063382621779, 21.65207197968723], [88.78975743604131, 21.60473222949968], [88.78514139229081, 21.59480081337642], [88.79833008872083, 21.595462907784636], [88.79305461014883, 21.582552066824398], [88.7538182382695, 21.564013423394307], [88.71227384451493, 21.578579500375092], [88.70567949629992, 21.60009756864216]]], [[[88.62720675254127, 21.658361876565294], [88.6410548837928, 21.678555756015925], [88.63446053557779, 21.651078838074902], [88.62720675254127, 21.658361876565294]]], [[[88.74458615076848, 21.650747790870792], [88.72612197576646, 21.64379579958451], [88.68622616906563, 21.67822470881182], [88.69051249540539, 21.717619326100756], [88.71029554005042, 21.674583189566622], [88.74458615076848, 21.650747790870792]]], [[[88.97769636016915, 21.74178577200069], [88.96582653338213, 21.722916081366495], [88.98758788249167, 21.69080450256795], [88.98462042579492, 21.65935501817762], [89.01396527535172, 21.65207197968723], [89.02022990615598, 21.599104427029832], [88.99385251329593, 21.601090710254486], [88.99022562177768, 21.639161138726987], [88.99022562177768, 21.619629353684573], [88.96912370748964, 21.619298306480466], [88.94010857534359, 21.64081637474753], [88.9513189673091, 21.673921095158402], [88.96088077222088, 21.642140563563967], [88.98330155615191, 21.64147846915575], [88.96516709856063, 21.648099413237922], [88.94703264096935, 21.703384296324078], [88.92494157444906, 21.720598750937732], [88.92724959632432, 21.763634887471866], [88.96648596820363, 21.740792630388366], [88.97769636016915, 21.74178577200069]]], [[[88.88207831105149, 21.741123677592473], [88.93681140123608, 21.70073591869121], [88.92032553069855, 21.631216005828378], [88.89164011596326, 21.651078838074902], [88.8672410275677, 21.70106696589532], [88.88207831105149, 21.741123677592473]]], [[[88.8039352847036, 21.71629513728432], [88.76799608693177, 21.703384296324078], [88.79173574050581, 21.73648901673495], [88.78909800121981, 21.746420432858212], [88.83756646060016, 21.765952217900626], [88.8619655489957, 21.761317557043107], [88.83921504765391, 21.7192745621213], [88.85636035301293, 21.641809516359857], [88.83855561283241, 21.618967259276356], [88.80426500211435, 21.63551961948179], [88.82108059006262, 21.66730015107623], [88.81679426372287, 21.709012098793927], [88.8039352847036, 21.71629513728432]]], [[[88.62522844807677, 21.77555258681978], [88.62918505700578, 21.735495875122627], [88.60907229495, 21.706363721161058], [88.60049964227048, 21.712984665243233], [88.61929353468327, 21.740461583184256], [88.59786190298448, 21.753041376940388], [88.613028903879, 21.740130535980146], [88.59489444628773, 21.723247128570602], [88.58170574985769, 21.726888647815798], [88.57577083646419, 21.772573161982802], [88.59324585923396, 21.7573449905938], [88.58895953289421, 21.77224211477869], [88.59588359851998, 21.784821908534823], [88.61335862128975, 21.78581505014715], [88.62522844807677, 21.77555258681978]]], [[[88.76568806505652, 21.76793850112528], [88.7564559775555, 21.77356630359513], [88.77129326103929, 21.80898835443476], [88.74491586817923, 21.775883634023888], [88.753158803448, 21.76264174585954], [88.74887247710825, 21.737482158347277], [88.76964467398552, 21.722916081366495], [88.75480739050175, 21.711991523630907], [88.76041258648452, 21.689480313751513], [88.8039352847036, 21.70272220191586], [88.8085513284541, 21.668293292688556], [88.79470319720258, 21.652734074095445], [88.78909800121981, 21.666638056668013], [88.78250365300481, 21.65902397097351], [88.74623473782223, 21.66200339581049], [88.70963610522892, 21.694777069017253], [88.69117193022689, 21.750724046511625], [88.71161440969342, 21.793098088637542], [88.71425214897943, 21.813623015292283], [88.69743656103115, 21.836796319579893], [88.6957879739774, 21.859638576663396], [88.71590073603319, 21.90466099642218], [88.77722817443279, 21.86890789837844], [88.82635606863464, 21.86096276547983], [88.81514567666912, 21.818919770558022], [88.79272489273808, 21.800050079923825], [88.7798659137188, 21.77091792596226], [88.78151450077256, 21.738475299959603], [88.75678569496625, 21.743772055225342], [88.76568806505652, 21.76793850112528]]], [[[88.78547110970156, 21.771911067574585], [88.82305889452712, 21.822561289803218], [88.82899380792064, 21.805677882393674], [88.82075087265187, 21.763965934675976], [88.79140602309506, 21.756682896185584], [88.78547110970156, 21.771911067574585]]], [[[88.85009572220868, 21.862286954296266], [88.87152735390747, 21.852024490968894], [88.87977028917624, 21.80137426874026], [88.89493729007076, 21.784490861330717], [88.89790474676751, 21.753041376940388], [88.9232929873953, 21.74939985769519], [88.91109344319753, 21.7345027335103], [88.88273774587299, 21.75237928253217], [88.8665815927462, 21.779856200473194], [88.8359178735464, 21.78846342778002], [88.85009572220868, 21.862286954296266]]], [[[88.97934494722291, 21.817926628945695], [88.95494585882736, 21.830837469905937], [88.95164868471986, 21.84573459409083], [88.97637749052615, 21.86956999278666], [88.9734100338294, 21.893074344278375], [88.98198268650891, 21.896053769115355], [89.02484594990649, 21.86659056794968], [89.02781340660324, 21.831499564314154], [89.01726244945922, 21.818257676149805], [88.99484166552818, 21.816271392925152], [88.96615625079288, 21.780187247677304], [88.95164868471986, 21.795084371862195], [88.97934494722291, 21.817926628945695]]], [[[88.63248223111329, 21.869901039990765], [88.65358414540133, 21.868576851174332], [88.6410548837928, 21.78912552218824], [88.62094212173702, 21.802036363148478], [88.61698551280801, 21.836796319579893], [88.59687275075223, 21.85864543505107], [88.61929353468327, 21.89671586352357], [88.63248223111329, 21.869901039990765]]], [[[88.9193363784663, 21.76826954832939], [88.90845570391153, 21.7573449905938], [88.88636463739124, 21.80633997680189], [88.89164011596326, 21.83514108355935], [88.86361413604945, 21.858976482255176], [88.86691131015695, 21.86923894558255], [88.82108059006262, 21.92783430070979], [88.88273774587299, 21.913599270933116], [88.9153797695373, 21.93313105597553], [88.9707722945434, 21.906647279646833], [88.96846427266814, 21.871556276011308], [88.94274631462959, 21.838451555600436], [88.97044257713264, 21.8142851097005], [88.94307603204034, 21.797732749495065], [88.9486812280231, 21.769262689941716], [88.9193363784663, 21.76826954832939]]], [[[88.81745369854437, 21.900688429972877], [88.83295041684964, 21.89704691072768], [88.83756646060016, 21.877846172889374], [88.83163154720664, 21.869901039990765], [88.8059135891681, 21.872880464827745], [88.81745369854437, 21.900688429972877]]], [[[88.6384171445068, 21.876853031277047], [88.62621760030902, 21.898702146748224], [88.6384171445068, 21.922206498239944], [88.66743227665285, 21.91326822372901], [88.65160584093682, 21.877515125685267], [88.6384171445068, 21.876853031277047]]], [[[88.71524130121169, 21.921875451035834], [88.72612197576646, 21.929158489526227], [88.73733236773198, 21.92253754544405], [88.79173574050581, 21.921213356627618], [88.79371404497033, 21.9129371765249], [88.80954048068635, 21.9129371765249], [88.81085935032935, 21.89969528836055], [88.79800037131008, 21.880494550522243], [88.77590930478979, 21.877184078481157], [88.71524130121169, 21.921875451035834]]], [[[88.7498616293405, 21.958621690691903], [88.77459043514679, 21.944717708119335], [88.78711969675531, 21.94835922736453], [88.80261641506058, 21.93048267834266], [88.79206545791658, 21.924854875872814], [88.72941914987396, 21.939420952853595], [88.72777056282021, 21.97980871175486], [88.74722389005449, 21.978153475734317], [88.7498616293405, 21.958621690691903]]], [[[88.97242088159715, 26.195694856079406], [88.9727505990079, 26.198343233712276], [88.97571805570465, 26.193708572854753], [88.97242088159715, 26.195694856079406]]], [[[88.9486812280231, 26.203308941773905], [88.95098924989836, 26.2029778945698], [88.95032981507686, 26.201984752957472], [88.9486812280231, 26.203308941773905]]], [[[88.95758359811337, 26.204964177794448], [88.96219964186388, 26.204964177794448], [88.96154020704238, 26.201322658549252], [88.95758359811337, 26.204964177794448]]], [[[88.95989161998862, 26.21257826348895], [88.95428642400586, 26.213240357897167], [88.96516709856063, 26.214564546713603], [88.95989161998862, 26.21257826348895]]], [[[88.98066381686591, 26.354928561255697], [88.98593929543792, 26.35691484448035], [88.98626901284867, 26.354928561255697], [88.98066381686591, 26.354928561255697]]], [[[88.9213146829308, 26.373798251889895], [88.93219535748557, 26.376115582318658], [88.93186564007482, 26.366515213399502], [88.9213146829308, 26.373798251889895]]], [[[88.98198268650891, 26.392005848115875], [88.98330155615191, 26.39564736736107], [88.98462042579492, 26.39101270650355], [88.98198268650891, 26.392005848115875]]], [[[88.98264212133041, 26.402930405851464], [88.9714317293649, 26.41219972756651], [88.98495014320567, 26.41385496358705], [88.98264212133041, 26.402930405851464]]], [[[88.98626901284867, 26.413523916382943], [88.99220392624218, 26.412530774770616], [88.99055533918843, 26.405909830688444], [88.98626901284867, 26.413523916382943]]], [[[88.96549681597138, 26.41451705799527], [88.96846427266814, 26.412530774770616], [88.96747512043588, 26.40888925552542], [88.96549681597138, 26.41451705799527]]], [[[88.9493406628446, 26.40127516983092], [88.9500000976661, 26.42676580454729], [88.9506595324876, 26.4118686803624], [88.9493406628446, 26.40127516983092]]], [[[88.9734100338294, 26.418158577240465], [88.96615625079288, 26.417827530036355], [88.9694534249004, 26.420806954873335], [88.9734100338294, 26.418158577240465]]], [[[88.96516709856063, 26.43173151260892], [88.96846427266814, 26.433717795833573], [88.96780483784664, 26.429083134976054], [88.96516709856063, 26.43173151260892]]], [[[88.9760477731154, 26.442325023140402], [88.9773666427584, 26.443980259160945], [88.9780260775799, 26.441000834323965], [88.9760477731154, 26.442325023140402]]], [[[89.13694986956169, 21.588510916498354], [89.12310173831017, 21.585862538865484], [89.13035552134667, 21.590166152518897], [89.13694986956169, 21.588510916498354]]], [[[88.99121477400993, 21.6586929237694], [88.99154449142068, 21.700404871487102], [88.9753883382939, 21.72390922297882], [89.00836007936896, 21.70868105158982], [89.01627329722697, 21.685507747302207], [89.0067114923152, 21.65935501817762], [88.99121477400993, 21.6586929237694]]], [[[89.09276773652111, 21.65207197968723], [89.09078943205661, 21.63320228905303], [89.07133610482232, 21.611684220785964], [89.03770492892576, 21.611022126377748], [89.02121905838823, 21.647106271625596], [89.032099732943, 21.65902397097351], [89.01693273204847, 21.661010254198164], [89.02121905838823, 21.688156124935077], [89.01231668829797, 21.71397780685556], [88.97703692534765, 21.72887493104045], [88.98099353427666, 21.746751480062322], [88.95626472847036, 21.75966232102256], [88.97934494722291, 21.779856200473194], [89.0027548833862, 21.77753887004443], [88.99286336106368, 21.789456569392346], [89.00110629633245, 21.81163673206763], [89.0113275360657, 21.808326260026544], [89.01462471017322, 21.77820096445265], [89.05452051687404, 21.73682006393906], [89.05386108205253, 21.722253986958275], [89.07430356151907, 21.703715343528188], [89.06375260437505, 21.692459738588493], [89.07628186598357, 21.686831936118644], [89.07199553964382, 21.67557633117895], [89.09276773652111, 21.65207197968723]]], [[[89.48941778165407, 25.928870809567776], [89.48743947718957, 25.93085709279243], [89.49535269504759, 25.934829659241736], [89.48941778165407, 25.928870809567776]]], [[[89.586024983004, 25.96230657718276], [89.60448915800602, 25.942443744936234], [89.58833300487925, 25.935491753649952], [89.5866844178255, 25.94641631138554], [89.57646317809223, 25.932512328812972], [89.57448487362772, 25.947740500201974], [89.5645933513052, 25.948071547406084], [89.586024983004, 25.96230657718276]]], [[[89.49469326022607, 25.954692491488256], [89.50227676067334, 25.95965819954989], [89.5085413914776, 25.947409452997867], [89.49469326022607, 25.954692491488256]]], [[[89.6186670066683, 26.126505990420682], [89.6173481370253, 26.12451970719603], [89.61504011515004, 26.12749913203301], [89.6186670066683, 26.126505990420682]]], [[[89.60943491916728, 26.131140651278205], [89.61141322363179, 26.128161226441225], [89.60547831023828, 26.13047855686999], [89.60943491916728, 26.131140651278205]]], [[[89.6252613548833, 26.14835510589186], [89.6206453111328, 26.154313955565815], [89.6232830504188, 26.151334530728835], [89.6252613548833, 26.14835510589186]]], [[[89.66416800935188, 26.16590060770962], [89.66054111783363, 26.168217938138383], [89.66515716158413, 26.16854898534249], [89.66416800935188, 26.16590060770962]]], [[[89.05419079946329, 26.242703559062843], [89.05419079946329, 26.24402774787928], [89.05517995169554, 26.242703559062843], [89.05419079946329, 26.242703559062843]]], [[[89.05649882133855, 26.24369670067517], [89.0574879735708, 26.24369670067517], [89.05715825616005, 26.243034606266953], [89.05649882133855, 26.24369670067517]]], [[[89.07430356151907, 26.248331361532692], [89.07430356151907, 26.250317644757345], [89.08584367089534, 26.24932450314502], [89.07430356151907, 26.248331361532692]]], [[[89.07100638741157, 26.278125609902474], [89.06968751776857, 26.282760270759997], [89.07331440928682, 26.278787704310695], [89.07100638741157, 26.278125609902474]]], [[[89.07562243116207, 26.296002158924345], [89.08023847491259, 26.29269168688326], [89.07661158339432, 26.292360639679153], [89.07562243116207, 26.296002158924345]]], [[[89.05913656062455, 26.29500901731202], [89.05979599544605, 26.304278339027064], [89.06869836553632, 26.297988442149], [89.05913656062455, 26.29500901731202]]], [[[89.01264640570872, 26.301298914190085], [89.01297612311947, 26.30295415021063], [89.01363555794097, 26.300967866985978], [89.01264640570872, 26.301298914190085]]], [[[89.06869836553632, 26.30825090547637], [89.07001723517932, 26.30825090547637], [89.06935780035782, 26.30527148063939], [89.06869836553632, 26.30825090547637]]], [[[89.05287192982028, 26.306264622251717], [89.04792616865903, 26.306264622251717], [89.05386108205253, 26.309906141496914], [89.05287192982028, 26.306264622251717]]], [[[89.0647417566073, 26.309244047088697], [89.0647417566073, 26.31288556633389], [89.06836864812557, 26.308912999884587], [89.0647417566073, 26.309244047088697]]], [[[89.01726244945922, 26.31089928310924], [89.01627329722697, 26.31652708557909], [89.02121905838823, 26.31652708557909], [89.01726244945922, 26.31089928310924]]], [[[89.06968751776857, 26.313216613538], [89.05485023428479, 26.322154888048935], [89.07496299634057, 26.32347907686537], [89.06968751776857, 26.313216613538]]], [[[89.0274836891925, 26.31884441600785], [89.03539690705051, 26.320830699232502], [89.03407803740751, 26.317851274395522], [89.0274836891925, 26.31884441600785]]], [[[88.99780912222494, 26.322485935253045], [89.00110629633245, 26.317189179987306], [88.99747940481419, 26.31851336880374], [88.99780912222494, 26.322485935253045]]], [[[89.00901951419046, 26.327782690518784], [89.0080303619582, 26.324472218477695], [89.00572234008295, 26.329768973743437], [89.00901951419046, 26.327782690518784]]], [[[89.01792188428072, 26.333079445784524], [89.01033838383346, 26.33109316255987], [89.00836007936896, 26.340031437070806], [89.01792188428072, 26.333079445784524]]], [[[88.99747940481419, 26.34168667309135], [88.99022562177768, 26.343010861907786], [88.99649025258194, 26.34466609792833], [88.99747940481419, 26.34168667309135]]], [[[89.07463327892982, 26.366846260603612], [89.07595214857282, 26.36783940221594], [89.07595214857282, 26.365853118991286], [89.07463327892982, 26.366846260603612]]], [[[89.05287192982028, 26.36817044942005], [89.05188277758803, 26.36817044942005], [89.05254221240953, 26.37214301586935], [89.05287192982028, 26.36817044942005]]], [[[89.04759645124828, 26.372805110277568], [89.04792616865903, 26.376115582318658], [89.05023419053428, 26.372805110277568], [89.04759645124828, 26.372805110277568]]], [[[89.05320164723103, 26.378101865543307], [89.05452051687404, 26.376115582318658], [89.05419079946329, 26.372805110277568], [89.05320164723103, 26.378101865543307]]], [[[89.07891960526959, 26.38869537607479], [89.07826017044809, 26.389688517687112], [89.07990875750184, 26.389026423278896], [89.07891960526959, 26.38869537607479]]], [[[89.01462471017322, 26.40922030272953], [89.01660301463772, 26.405578783484334], [89.01198697088722, 26.405247736280224], [89.01462471017322, 26.40922030272953]]]]}}]}